id,name,address,number,lat,lon
1,East Kowloon General Out-patient Clinic,118 SHATIN PASS ROAD,99033,22.34555,114.19657
2,Hong Kong Buddhist Hospital General Out-patient Clinic,10 HENG LAM STREET,43871,22.33511,114.18907
3,Our Lady of Maryknoll Hospital Family Medicine Clinic,118 SHATIN PASS ROAD,133458,22.34557,114.19696
4,Robert Black General Out-patient Clinic,600 PRINCE EDWARD ROAD EAST,80023,22.33273,114.19572
5,Wang Tau Hom Jockey Club General Out-patient Clinic,200 JUNCTION ROAD,37963,22.33917,114.18531
6,Wu York Yu General Out-patient Clinic,55 SHEUNG FUNG STREET,34285,22.34691,114.19745
7,"CHAK, NGAI CHUEN","New Tech Plaza, 34 Tai Yau Street, San Po Kong, Kowloon",,22.33669,114.1972
8,"CHAN, CHUEN","Wan Fung Street, Fung Wong New Village, Wong Tai Sin, Kowloon",,22.34301,114.19692
9,"CHAN, KA SHING RICKY","Ground Floor, 40 Yuk Wah Street, Tsz Wan Shan, Kowloon",,22.3486,114.20036
10,"CHAN, KING HONG","Plaza Hollywood, 3 Lung Poon Street, Diamond Hill, Kowloon",,22.3407,114.20197
11,"CHAN, KWOK PING","103 Ching Tak Street, Wong Tai Sin Lower Estate, Wong Tai Sin, Kowloon",,22.34133,114.19419
12,"CHAN, LAI MAN","Lok Fu Shopping Centre, Lok Fu, Wong Tai Sin, Kowloon",,22.34153,114.18507
13,"CHAN, PUI KWONG","Chuk Yuen Plaza, 15 Chuk Yuen Road, Wong Tai Sin, Kowloon",,22.34493,114.19248
14,"CHAN, TAI SHAN","Po Fat Building, 54 Wan Fung Street, Wong Tai Sin, Kowloon",,22.34435,114.19847
15,"CHANG, CHIA YAN","Tropicana Gardens , 110 Lung Cheung Road, Wong Tai Sin, Kowloon",,22.34216,114.19704
16,"CHEUNG, SZE MAN","Shop 116B, Plaza Hollywood, Diamond Hill, Kowloon",,22.3407,114.20197
17,"CHEUNG, TAK SUI","Lung Cheung Mall, 136 Lung Cheung Road, Wong Tai Sin, Kowloon",,22.34196,114.19281
18,"CHEUNG, TAK SUI","198 Junction Road, Lok Fu, Wong Tai Sin, Kowloon",,22.33847,114.18751
19,"CHIANG, CHAY KUNG","Choi Wan Shopping Centre, 45 Clear Water Bay Road, Ngau Chi Wan, Kowloon",,22.33472,114.20853
20,"CHIU, SIN MAN ANGELA","Wong Tai Sin Temple Mall North, 136 Lung Cheung Road, Wong Tai Sin, Kowloon",,22.34196,114.19281
21,"CHOI, WING KIN","Infinity Eight, 8 Clear Water Bay Road, Ngau Chi Wan, Kowloon",,22.33472,114.20853
22,"CHONG, MAN YUK","1st Floor, Plaza Hollywood, Diamond Hill, Kowloon",,22.3407,114.20197
23,"CHONG, YU HOI","Cheung Tung House, Tung Tau (II) Estate, Wong Tai Sin, Kowloon",,22.33401,114.19267
24,"CHOW, KOON MAN","Man Tak House, 21 Clearwater Bay Road, Wong Tai Sin, Kowloon",,22.34301,114.19692
25,"CHOW, TUNG FAI","Fung Wong Chuen Building, Ngan Fung Street, Tsz Wan Shan, Kowloon",,22.34417,114.19785
26,"CHU, ELAINE","Lions Rise Mall, 8 Muk Lun Street, Wong Tai Sin, Kowloon",,22.34068,114.19728
27,"CHUNG, LING LEE","Ground Floor, 65 Hong Keung Street, San Po Kong, Kowloon",,22.33422,114.19652
28,"CHUNG, YAT KI BENEDICT","Wong Tai Sin Plaza, 103 Ching Tak Street, Wong Tai Sin, Kowloon",,22.34135,114.19279
29,"FANG, YUNG DA","Wah Kay House, 15 Yuk Wah Crescent, Tsz Wan Shan, Kowloon",,22.34695,114.20123
30,"FONG, YUEN KI","1st Floor, Plaza Hollywood, Diamond Hill, Kowloon",,22.3407,114.20197
31,"HO, CHI SUN JASON","Fu Yau Building, 65 Po Kong Village Road, Wong Tai Sin, Kowloon",,22.28636,114.13933
32,"HONG, SZE NGA","Shop 116B, Plaza Hollywood, Diamond Hill, Kowloon",,22.3407,114.20197
33,"HUANG, HSIN YANG","Yin Hing Building, 82 Choi Hung Road, San Po Kong, Kowloon",,22.33546,114.19464
34,"ING, DAVID","Ground Floor, 42 Yuk Wah Street, Tsz Wan Shan, Kowloon",,22.34713,114.2014
35,"KOO, CHUNG WAI","Kai Tak Garden Phase 2, 121 Choi Hung Road, Wong Tai Sin, Kowloon",,22.33752,114.19496
36,"KUNG, KENNY","Wong King Industrial Building, 2-4 Tai Yau Street, San Po Kong, Kowloon",,22.33888,114.19874
37,"KWAN, YEE YAN","1st Floor, 74-76 Choi Hung Road, San Po Kong, Kowloon",,22.33631,114.19498
38,"KWOK, KA CHUN","Kai Tak Garden Shopping Arcade, 121 Choi Hung Road, Wong Tai Sin, Kowloon",,22.28636,114.13933
39,"KWONG, KAM TIM WILLIAM","Wah Kay House, 7 Yuk Wah Crescent, Tsz Wan Shan, Kowloon",,22.34695,114.20123
40,"LAM, HIU TAN (MA, LAMBERT)","Suet Fung House, Fung Tak Estate, Diamond Hill, Kowloon",,22.3446,114.19993
41,"LAM, KUI SHING CONRAD","1st Floor, 74-76 Choi Hung Road, San Po Kong, Kowloon",,22.33631,114.19498
42,"LAM, YEE","Chuk Yuen Shopping Centre, Chuk Yuen South Estate, Wong Tai Sin, Kowloon",,22.34456,114.19064
43,"LAM, YUI SUM SAMUEL","Rhythm Garden, 242 Choi Hung Road, San Po Kong, Kowloon",,22.3371,114.20235
44,"LAU, SAI HO","Fung Wong Chuen Building, 1 Ngan Fung Street, Wong Tai Sin, Kowloon",,22.34417,114.19785
45,"LEE, KA YAN","Shop 116B, Plaza Hollywood, Diamond Hill, Kowloon",,22.3407,114.20197
46,"LEE, YAN CHI VIVIEN","Lok Fu Plaza, 198 Junction Road, Wang Tau Hom, Kowloon",,22.33847,114.18751
47,"LEE, YIU KAN JOHN","Fu Shun House, Fu Shan Estate, Wong Tai Sin, Kowloon",,22.34269,114.20912
48,"LEONG, KEVIN FONG","1st Floor, Plaza Hollywood, Diamond Hill, Kowloon",,22.3407,114.20197
49,"LEUNG, CHEUK HANG","Lok Fu Shopping Centre, Lok Fu, Wang Tau Hom, Kowloon",,22.33844,114.1885
50,"LEUNG, CHI WANG","Tsuen Shek House, Ping Shek Estate, Ngau Chi Wan, Kowloon",,22.33378,114.20917
51,"LEUNG, CHI YIN","Rhythm Garden, 242 Choi Hung Road, Wong Tai Sin, Kowloon",,22.3371,114.20235
52,"LEUNG, WAI KAY","Ground Floor, 86 Shung Ling Street, San Po Kong, Kowloon",,22.33506,114.19588
53,"LI, CHUNG PUN","Lok Fu Plaza, 198 Junction Road, Wong Tai Sin, Kowloon",,22.33847,114.18751
54,"LI, HOI YU","2nd Floor, 33 Fung Tak Road, Wong Tai Sin, Kowloon",,22.34301,114.19692
55,"LI, SHUN CHEONG","Kam Pik House, Choi Hung Estate, Choi Hung, Kowloon",,22.33509,114.20537
56,"LING, MUN WAI","Tsz Wan Shan (South) Estate Community Centre, 45 Wan Wah Street, Tsz Wan Shan, Kowloon",,22.34617,114.19942
57,"LIU, YUET SIN","Ground Floor, 9B Yuk Wak Cresent, Tsz Wan Shan, Kowloon",,22.34986,114.20261
58,"LO, SAU FAI","30 Shung Wah Street, Fung Wong New Village, Wong Tai Sin, Kowloon",,22.34301,114.19692
59,"LOO, ANNE","Ngan Fung House, Fung Tak Estate, Diamond Hill, Kowloon",,22.34356,114.20062
60,"MAK, TAK WAH","Winning Centre, 29 Tai Yau Street, San Po Kong, Kowloon",,22.33715,114.19822
61,"NG, HAK LAN","Hang On Building, 51 Po Kong Village Road, Tsz Wan Shan, Kowloon",,22.34386,114.19862
62,"NGAI, MAN CHIU","Fung Wong Chuen Building, 1 Ngan Fung Street, Tsz Wan Shan, Kowloon",,22.34417,114.19785
63,"NGAN, PANG","1 Kam Fung Street, Fung Wong New Village, Tsz Wan Shan, Kowloon",,22.34541,114.19829
64,"PANG, NAOMI MARIAN HAI-SHR","Lions Rise, 8 Muk Lun Street, Wong Tai Sin, Kowloon",,22.34068,114.19728
65,"SHUM, NAM CHU","5 Chi Lin Drive, Diamond Hill, Kowloon",,22.34076,114.20605
66,"SUNG, WAI WA","Kam Pik House, Choi Hung Estate, Choi Hung, Kowloon",,22.33509,114.20537
67,"SZE, TIN KAP","Grandview Garden Shopping Centre, 185 Hammer Hill Road, Diamond Hill, Kowloon",,22.34197,114.20763
68,"TAM, CHI WAI","Kai Tak Garden Shopping Arcade, 121 Choi Hung Road, Wong Tai Sin, Kowloon",,22.33802,114.19417
69,"TAM, CHI WAI","Maxgrand Plaza, 3 Tai Yau Street, San Po Kong, Kowloon",,22.33821,114.19916
70,"TANG, KUEN YAN ALFRED","Hsin Kuang Shopping Centre, 120 Lung Cheung Road, Wong Tai Sin, Kowloon",,22.34203,114.19652
71,"TANG, MAN CHUN","Lok Fu Place (A), 198 Junction Road, Wang Tau Hom, Kowloon",,22.33822,114.18725
72,"TSANG, HON KEUNG ANDREW","Chuk Yuen Shopping Centre, Chuk Yuen South Estate, Wong Tai Sin, Kowloon",,22.34456,114.19064
73,"TSE, YIN CHU CATHERINE","Temple Mall North, Lung Cheung Road, Wong Tai Sin, Kowloon",,22.34196,114.19281
74,"WAN, SIU LUN","Lung Poon Court Commercial Complex, 8 Lung Poon Street, Diamond Hill, Kowloon",,22.3417,114.20026
75,"WONG, CHI HUNG","Shop 3134, Lok Fu Place, Wang Tau Hom, Kowloon",,22.34135,114.1863
76,"WONG, CHI KWAN","Shop 116B, Plaza Hollywood, Diamond Hill, Kowloon",,22.3407,114.20197
77,"WONG, KWOK TUNG","Lions Rise, 8 Muk Lun Street, Wong Tai Sin, Kowloon",,22.34068,114.19728
78,"WONG, YEUK KA HARRY","Lee Sum Building, 23-25 Sze Mei Street, San Po Kong, Kowloon",,22.33728,114.20069
79,"WONG, YUK SEN ANNA","Kwong Fat Building, 64 Yuk Wah Street, Tsz Wan Shan, Kowloon",,22.34708,114.20195
80,"WOO, WING HUNG","Room 3134, Lok Fu Plaza, Wang Tau Hom, Kowloon",,22.34135,114.1863
81,"WU, HO MUN","Fu Shan Estate, 181 Po Kong Village Road, Diamond Hill, Kowloon",,22.3457,114.20658
82,"YAU, KWOK HO","Yue Tung House, Tung Tau Estate, Wong Tai Sin, Kowloon",,22.33637,114.19285
83,"YAU, SHING KIN","Grandview Garden Shopping Centre, 185 Hammer Hill Road, Diamond Hill, Kowloon",,22.34197,114.20763
84,"YOUNG, HOI YAN","Temple Mall North, Lung Cheung Road, Wong Tai Sin, Kowloon",,22.34196,114.19281
85,"YUN, LOK CHEUNG","Infinity 8, 8 Clear Water Bay Road, Choi Hung, Kowloon",,22.33292,114.21512
86,"YUNG, CHI YU","1 Fu Chi Path, Ngau Chi Wan Village, Choi Hung, Kowloon",,22.33569,114.21809
